NORAD_CAT_ID,OBJECT_NAME,OBJECT_TYPE,EPOCH,MEAN_MOTION,ECCENTRICITY,INCLINATION,RA_OF_ASC_NODE,ARG_OF_PERICENTER,MEAN_ANOMALY,BSTAR,MEAN_MOTION_DOT,MEAN_MOTION_DDOT,TLE_LINE0,TLE_LINE1,TLE_LINE2,SEMIMAJOR_AXIS,PERIOD,APOGEE,PERIGEE,DECAYED
50834.0,STARLINK-3331,PAYLOAD,2024-05-03 13:59:31,15.08837881,0.0001169,53.2185,329.792,96.0437,264.0688,3.3237e-05,2.41e-06,0.0,0 STARLINK-3331,1 50834U 22001AH  24124.58300037  .00000241  00000-0  33237-4 0  9993,2 50834  53.2185 329.7920 0001169  96.0437 264.0688 15.08837881129627,6917.887,95.438,540.561,538.943,0.0
50834.0,STARLINK-3331,PAYLOAD,2024-05-03 20:21:04,15.08833361,0.000107,53.2165,328.6024,105.6362,254.4748,-3.0436e-05,-7.72e-06,0.0,0 STARLINK-3331,1 50834U 22001AH  24124.84796435 -.00000772  00000-0 -30436-4 0  9992,2 50834  53.2165 328.6024 0001070 105.6362 254.4748 15.08833361128384,6917.901,95.438,540.506,539.025,0.0
50834.0,STARLINK-3331,PAYLOAD,2024-05-03 23:31:50,15.08832367,9.65e-05,53.2169,328.0095,89.1925,270.9178,-6.7678e-05,-1.364e-05,0.0,0 STARLINK-3331,1 50834U 22001AH  24124.98044562 -.00001364  00000-0 -67678-4 0  9990,2 50834  53.2169 328.0095 0000965  89.1925 270.9178 15.08832367129682,6917.904,95.438,540.436,539.101,0.0
50834.0,STARLINK-3331,PAYLOAD,2024-05-04 20:11:51,15.08843909,0.000115,53.217,324.142,102.7164,257.3956,0.00026412,3.919e-05,0.0,0 STARLINK-3331,1 50834U 22001AH  24125.84156506  .00003919  00000-0  26412-3 0  9994,2 50834  53.2170 324.1420 0001150 102.7164 257.3956 15.08843909129819,6917.868,95.437,540.529,538.938,0.0
50834.0,STARLINK-3331,PAYLOAD,2024-05-04 23:22:37,15.08845646,0.0001029,53.2166,323.5484,102.999,257.1117,0.00041784,6.369e-05,0.0,0 STARLINK-3331,1 50834U 22001AH  24125.97404584  .00006369  00000-0  41784-3 0  9991,2 50834  53.2166 323.5484 0001029 102.9990 257.1117 15.08845646128558,6917.863,95.437,540.44,539.016,0.0
50834.0,STARLINK-3331,PAYLOAD,2024-05-05 20:02:38,15.0884999,0.0001123,53.217,319.6817,95.6987,264.4133,0.00045489,6.961e-05,0.0,0 STARLINK-3331,1 50834U 22001AH  24126.83516676  .00006961  00000-0  45489-3 0  9997,2 50834  53.2170 319.6817 0001123  95.6987 264.4133 15.08849990129969,6917.85,95.437,540.492,538.938,0.0
50834.0,STARLINK-3331,PAYLOAD,2024-05-06 11:56:29,15.08844954,0.000113,53.2157,316.7079,88.8086,271.3035,0.00011217,1.498e-05,0.0,0 STARLINK-3331,1 50834U 22001AH  24127.49756452  .00001498  00000-0  11217-3 0  9990,2 50834  53.2157 316.7079 0001130  88.8086 271.3035 15.08844954130060,6917.865,95.437,540.512,538.949,0.0
50834.0,STARLINK-3331,PAYLOAD,2024-05-06 13:31:52,15.08846326,0.0001087,53.2164,316.412,99.3094,260.8022,0.00010866,1.442e-05,0.0,0 STARLINK-3331,1 50834U 22001AH  24127.56380264  .00001442  00000-0  10866-3 0  9990,2 50834  53.2164 316.4120 0001087  99.3094 260.8022 15.08846326128790,6917.861,95.437,540.478,538.974,0.0
50834.0,STARLINK-3331,PAYLOAD,2024-05-06 21:28:47,15.08861285,0.0001085,53.2164,314.9241,90.7228,269.3888,0.00060175,9.307e-05,0.0,0 STARLINK-3331,1 50834U 22001AH  24127.89499916  .00009307  00000-0  60175-3 0  9997,2 50834  53.2164 314.9241 0001085  90.7228 269.3888 15.08861285128840,6917.815,95.436,540.431,538.93,0.0
50834.0,STARLINK-3331,PAYLOAD,2024-05-07 00:39:34,15.08865965,0.0001078,53.2161,314.3292,90.3178,269.7938,0.00087949,0.00013747,0.0,0 STARLINK-3331,1 50834U 22001AH  24128.02747718  .00013747  00000-0  87949-3 0  9990,2 50834  53.2161 314.3292 0001078  90.3178 269.7938 15.08865965130144,6917.801,95.436,540.412,538.92,0.0
50834.0,STARLINK-3331,PAYLOAD,2024-05-07 13:22:39,15.08832956,0.0001079,53.216,311.9503,77.734,282.3773,-0.00027679,-4.689e-05,0.0,0 STARLINK-3331,1 50834U 22001AH  24128.55740268 -.00004689  00000-0 -27679-3 0  9992,2 50834  53.2160 311.9503 0001079  77.7340 282.3773 15.08832956130223,6917.902,95.438,540.513,539.02,0.0
50834.0,STARLINK-3331,PAYLOAD,2024-05-07 21:19:35,15.08839493,0.0001051,53.2159,310.4634,76.5974,283.5135,0.00029238,4.368e-05,0.0,0 STARLINK-3331,1 50834U 22001AH  24128.88860277  .00004368  00000-0  29238-3 0  9996,2 50834  53.2159 310.4634 0001051  76.5974 283.5135 15.08839493128999,6917.882,95.438,540.474,539.02,0.0
50834.0,STARLINK-3331,PAYLOAD,2024-05-08 13:13:27,15.08837489,0.0001127,53.2158,307.4896,69.9684,290.1429,0.00074018,0.00011511,0.0,0 STARLINK-3331,1 50834U 22001AH  24129.55100878  .00011511  00000-0  74018-3 0  9999,2 50834  53.2158 307.4896 0001127  69.9684 290.1429 15.08837489129097,6917.888,95.438,540.533,538.973,0.0
50834.0,STARLINK-3331,PAYLOAD,2024-05-08 21:10:22,15.08852568,0.0001111,53.2159,306.0026,68.8905,291.2206,0.0010986,0.00017245,0.0,0 STARLINK-3331,1 50834U 22001AH  24129.88220707  .00017245  00000-0  10986-2 0  9992,2 50834  53.2159 306.0026 0001111  68.8905 291.2206 15.08852568130424,6917.842,95.437,540.476,538.938,0.0
50834.0,STARLINK-3331,PAYLOAD,2024-05-09 11:28:50,15.08838277,0.0001117,53.2158,303.3259,82.9437,277.1682,6.3995e-05,7.31e-06,0.0,0 STARLINK-3331,1 50834U 22001AH  24130.47836790  .00000731  00000-0  63995-4 0  9996,2 50834  53.2158 303.3259 0001117  82.9437 277.1682 15.08838277130516,6917.886,95.438,540.523,538.978,0.0
50834.0,STARLINK-3331,PAYLOAD,2024-05-09 14:39:37,15.08846605,0.0001119,53.216,302.7314,76.5721,283.5396,0.00050624,7.78e-05,0.0,0 STARLINK-3331,1 50834U 22001AH  24130.61084764  .00007780  00000-0  50624-3 0  9993,2 50834  53.2160 302.7314 0001119  76.5721 283.5396 15.08846605129257,6917.86,95.437,540.499,538.951,0.0
50834.0,STARLINK-3331,PAYLOAD,2024-05-09 19:25:46,15.0885841,0.0001039,53.2162,301.8389,79.7357,280.3752,0.0011069,0.00017381,0.0,0 STARLINK-3331,1 50834U 22001AH  24130.80956622  .00017381  00000-0  11069-2 0  9992,2 50834  53.2162 301.8389 0001039  79.7357 280.3752 15.08858410130566,6917.824,95.436,540.408,538.97,0.0
50834.0,STARLINK-3331,PAYLOAD,2024-05-09 21:01:09,15.08856037,0.0001075,53.2164,301.5422,75.7566,284.3546,0.0019967,0.00031646,0.0,0 STARLINK-3331,1 50834U 22001AH  24130.87580789  .00031646  00000-0  19967-2 0  9991,2 50834  53.2164 301.5422 0001075  75.7566 284.3546 15.08856037129297,6917.831,95.437,540.44,538.953,0.0
50834.0,STARLINK-3331,PAYLOAD,2024-05-10 11:19:38,15.08858076,9.38e-05,53.2166,298.8654,87.347,272.763,0.0018016,0.00028515,0.0,0 STARLINK-3331,1 50834U 22001AH  24131.47196789  .00028515  00000-0  18016-2 0  9996,2 50834  53.2166 298.8654 0000938  87.3470 272.7630 15.08858076130667,6917.825,95.436,540.339,539.041,0.0
50834.0,STARLINK-3331,PAYLOAD,2024-05-10 20:51:56,15.08864099,9.26e-05,53.2169,297.0816,78.6226,281.487,0.0021369,0.00033907,0.0,0 STARLINK-3331,1 50834U 22001AH  24131.86940650  .00033907  00000-0  21369-2 0  9999,2 50834  53.2169 297.0816 0000926  78.6226 281.4870 15.08864099130722,6917.807,95.436,540.312,539.031,0.0
50834.0,STARLINK-3331,PAYLOAD,2024-05-11 20:42:41,15.08783216,0.0001503,53.2172,292.6206,77.2116,282.9044,0.00028263,4.206e-05,0.0,0 STARLINK-3331,1 50834U 22001AH  24132.86298401  .00004206  00000-0  28263-3 0  9991,2 50834  53.2172 292.6206 0001503  77.2116 282.9044 15.08783216130871,6918.054,95.441,540.959,538.879,0.0
50834.0,STARLINK-3331,PAYLOAD,2024-05-12 03:04:17,15.08690467,0.0003275,53.2173,291.4316,83.1547,276.9818,0.002567,0.00040637,0.0,0 STARLINK-3331,1 50834U 22001AH  24133.12797585  .00040637  00000-0  25670-2 0  9994,2 50834  53.2173 291.4316 0003275  83.1547 276.9818 15.08690467130915,6918.337,95.447,542.468,537.937,0.0
50834.0,STARLINK-3331,PAYLOAD,2024-05-12 11:01:15,15.08682527,0.0003051,53.218,289.9441,82.2902,277.8436,0.0012321,0.00019292,0.0,0 STARLINK-3331,1 50834U 22001AH  24133.45921209  .00019292  00000-0  12321-2 0  9994,2 50834  53.2180 289.9441 0003051  82.2902 277.8436 15.08682527130960,6918.362,95.448,542.338,538.116,0.0
50834.0,STARLINK-3331,PAYLOAD,2024-05-12 14:12:01,15.08768531,0.0005214,53.2174,289.3485,146.8101,213.3219,0.0039838,0.00063575,0.0,0 STARLINK-3331,1 50834U 22001AH  24133.59168286  .00063575  00000-0  39838-2 0  9992,2 50834  53.2174 289.3485 0005214 146.8101 213.3219 15.08768531129700,6918.099,95.442,543.571,536.357,0.0
50834.0,STARLINK-3331,PAYLOAD,2024-05-12 22:00:00,15.08816934,0.0001347,53.2169,287.8935,85.1048,241.2131,0.0033764,0.00053824,0.0,0 STARLINK-3331,1 50834U 22001AH  24133.91667824  .00053824  00000-0  33764-2 0  9998,2 50834  53.2169 287.8935 0001347  85.1048 241.2131 15.08816934131038,6917.951,95.439,540.748,538.884,0.0
50834.0,STARLINK-3331,PAYLOAD,2024-05-13 10:52:03,15.08855488,0.0001341,53.2174,285.4855,89.1886,270.926,0.0013345,0.00021023,0.0,0 STARLINK-3331,1 50834U 22001AH  24134.45281546  .00021023  00000-0  13345-2 0  9990,2 50834  53.2174 285.4855 0001341  89.1886 270.9260 15.08855488131115,6917.833,95.437,540.626,538.77,0.0
50834.0,STARLINK-3331,PAYLOAD,2024-05-13 17:13:35,15.0886804,0.0001376,53.2176,284.2965,89.8285,270.2865,0.0013883,0.00021893,0.0,0 STARLINK-3331,1 50834U 22001AH  24134.71777106  .00021893  00000-0  13883-2 0  9993,2 50834  53.2176 284.2965 0001376  89.8285 270.2865 15.08868040129876,6917.795,95.436,540.612,538.708,0.0
50834.0,STARLINK-3331,PAYLOAD,2024-05-15 02:36:37,15.08924757,9.33e-05,53.2169,278.0511,10.3979,349.7032,0.0017876,0.00028342,0.0,0 STARLINK-3331,1 50834U 22001AH  24136.10876332  .00028342  00000-0  17876-2 0  9991,2 50834  53.2169 278.0511 0000933  10.3979 349.7032 15.08924757131366,6917.621,95.432,540.132,538.841,0.0
50834.0,STARLINK-3331,PAYLOAD,2024-05-15 08:58:10,15.08839943,0.0002685,53.2149,276.8621,69.487,290.641,0.0016678,0.00026356,0.0,0 STARLINK-3331,1 50834U 22001AH  24136.37373339  .00026356  00000-0  16678-2 0  9991,2 50834  53.2149 276.8621 0002685  69.4870 290.6410 15.08839943131404,6917.881,95.438,541.603,537.888,0.0
50834.0,STARLINK-3331,PAYLOAD,2024-05-15 13:44:19,15.08831369,0.0001929,53.2156,275.97,66.4173,293.7021,0.00096863,0.00015158,0.0,0 STARLINK-3331,1 50834U 22001AH  24136.57245293  .00015158  00000-0  96863-3 0  9993,2 50834  53.2156 275.9700 0001929  66.4173 293.7021 15.08831369130150,6917.907,95.438,541.106,538.437,0.0
